{
  "type": "FeatureCollection",
  "features": [
    {
      "type": "Feature",
      "properties": {
        "norad_id": 66593,
        "name": "STARLINK-36031",
        "group": "last-30-days",
        "lat": 18.000233044669724,
        "lon": -123.85025964264953,
        "alt_km": 388.4411507537725,
        "timestamp": "2025-12-08T19:31:47.637047+00:00",
        "meta_object_name": "STARLINK-36031",
        "meta_object_id": "2025-270F",
        "meta_epoch": "2025-12-08T06:00:02.999808",
        "meta_mean_motion": 15.6140076,
        "meta_eccentricity": 0.00014714,
        "meta_inclination": 42.9989,
        "meta_ra_of_asc_node": 219.0874,
        "meta_arg_of_pericenter": 273.4166,
        "meta_mean_anomaly": 183.6445,
        "meta_ephemeris_type": 0,
        "meta_classification_type": "U",
        "meta_norad_cat_id": 66593,
        "meta_element_set_no": 999,
        "meta_rev_at_epoch": 367,
        "meta_bstar": -0.025988505,
        "meta_mean_motion_dot": -0.02001182,
        "meta_mean_motion_ddot": 0,
        "tle_line1": "1 66593U 25270F   25342.25003472 -.02001182  00000+0 -25989-1 0  9993",
        "tle_line2": "2 66593  42.9989 219.0874 0001471 273.4166 183.6445 15.61400760  3672"
      },
      "geometry": {
        "type": "Point",
        "coordinates": [
          -123.85025964264953,
          18.000233044669724
        ]
      }
    },
    {
      "type": "Feature",
      "properties": {
        "norad_id": 66594,
        "name": "STARLINK-36032",
        "group": "last-30-days",
        "lat": 19.22040296164182,
        "lon": -122.29095250358426,
        "alt_km": 388.1883956557176,
        "timestamp": "2025-12-08T19:31:47.637056+00:00",
        "meta_object_name": "STARLINK-36032",
        "meta_object_id": "2025-270G",
        "meta_epoch": "2025-12-08T06:00:02.999808",
        "meta_mean_motion": 15.6139851,
        "meta_eccentricity": 0.0001444,
        "meta_inclination": 42.9989,
        "meta_ra_of_asc_node": 219.0829,
        "meta_arg_of_pericenter": 277.0966,
        "meta_mean_anomaly": 181.8855,
        "meta_ephemeris_type": 0,
        "meta_classification_type": "U",
        "meta_norad_cat_id": 66594,
        "meta_element_set_no": 999,
        "meta_rev_at_epoch": 341,
        "meta_bstar": -0.025973054,
        "meta_mean_motion_dot": -0.01999965,
        "meta_mean_motion_ddot": 0,
        "tle_line1": "1 66594U 25270G   25342.25003472 -.01999965  00000+0 -25973-1 0  9991",
        "tle_line2": "2 66594  42.9989 219.0829 0001444 277.0966 181.8855 15.61398510  3417"
      },
      "geometry": {
        "type": "Point",
        "coordinates": [
          -122.29095250358426,
          19.22040296164182
        ]
      }
    },
    {
      "type": "Feature",
      "properties": {
        "norad_id": 66595,
        "name": "STARLINK-35711",
        "group": "last-30-days",
        "lat": 20.426265876392844,
        "lon": -120.7104298755569,
        "alt_km": 388.0885598582345,
        "timestamp": "2025-12-08T19:31:47.637067+00:00",
        "meta_object_name": "STARLINK-35711",
        "meta_object_id": "2025-270H",
        "meta_epoch": "2025-12-08T06:00:02.999808",
        "meta_mean_motion": 15.61398797,
        "meta_eccentricity": 0.00015106,
        "meta_inclination": 42.9988,
        "meta_ra_of_asc_node": 219.0774,
        "meta_arg_of_pericenter": 275.6429,
        "meta_mean_anomaly": 185.2549,
        "meta_ephemeris_type": 0,
        "meta_classification_type": "U",
        "meta_norad_cat_id": 66595,
        "meta_element_set_no": 999,
        "meta_rev_at_epoch": 378,
        "meta_bstar": -0.025969643,
        "meta_mean_motion_dot": -0.01999804,
        "meta_mean_motion_ddot": 0,
        "tle_line1": "1 66595U 25270H   25342.25003472 -.01999804  00000+0 -25970-1 0  9991",
        "tle_line2": "2 66595  42.9988 219.0774 0001510 275.6429 185.2549 15.61398797  3783"
      },
      "geometry": {
        "type": "Point",
        "coordinates": [
          -120.7104298755569,
          20.426265876392844
        ]
      }
    },
    {
      "type": "Feature",
      "properties": {
        "norad_id": 66596,
        "name": "STARLINK-35811",
        "group": "last-30-days",
        "lat": 21.619444705146833,
        "lon": -119.10155122720121,
        "alt_km": 387.7924186169612,
        "timestamp": "2025-12-08T19:31:47.637077+00:00",
        "meta_object_name": "STARLINK-35811",
        "meta_object_id": "2025-270J",
        "meta_epoch": "2025-12-08T06:00:02.999808",
        "meta_mean_motion": 15.61395036,
        "meta_eccentricity": 0.00014078,
        "meta_inclination": 42.999,
        "meta_ra_of_asc_node": 219.073,
        "meta_arg_of_pericenter": 279.7994,
        "meta_mean_anomaly": 183.0179,
        "meta_ephemeris_type": 0,
        "meta_classification_type": "U",
        "meta_norad_cat_id": 66596,
        "meta_element_set_no": 999,
        "meta_rev_at_epoch": 378,
        "meta_bstar": -0.025883065,
        "meta_mean_motion_dot": -0.01993624,
        "meta_mean_motion_ddot": 0,
        "tle_line1": "1 66596U 25270J   25342.25003472 -.01993624  00000+0 -25883-1 0  9999",
        "tle_line2": "2 66596  42.9990 219.0730 0001407 279.7994 183.0179 15.61395036  3784"
      },
      "geometry": {
        "type": "Point",
        "coordinates": [
          -119.10155122720121,
          21.619444705146833
        ]
      }
    },
    {
      "type": "Feature",
      "properties": {
        "norad_id": 66597,
        "name": "STARLINK-35820",
        "group": "last-30-days",
        "lat": 22.794812724823732,
        "lon": -117.46924709881691,
        "alt_km": 387.72369937609983,
        "timestamp": "2025-12-08T19:31:47.637086+00:00",
        "meta_object_name": "STARLINK-35820",
        "meta_object_id": "2025-270K",
        "meta_epoch": "2025-12-08T06:00:02.999808",
        "meta_mean_motion": 15.61395853,
        "meta_eccentricity": 0.00014064,
        "meta_inclination": 42.9991,
        "meta_ra_of_asc_node": 219.0681,
        "meta_arg_of_pericenter": 276.4529,
        "meta_mean_anomaly": 188.2801,
        "meta_ephemeris_type": 0,
        "meta_classification_type": "U",
        "meta_norad_cat_id": 66597,
        "meta_element_set_no": 999,
        "meta_rev_at_epoch": 378,
        "meta_bstar": -0.025884489,
        "meta_mean_motion_dot": -0.01993776,
        "meta_mean_motion_ddot": 0,
        "tle_line1": "1 66597U 25270K   25342.25003472 -.01993776  00000+0 -25884-1 0  9999",
        "tle_line2": "2 66597  42.9991 219.0681 0001406 276.4529 188.2801 15.61395853  3784"
      },
      "geometry": {
        "type": "Point",
        "coordinates": [
          -117.46924709881691,
          22.794812724823732
        ]
      }
    },
    {
      "type": "Feature",
      "properties": {
        "norad_id": 66598,
        "name": "STARLINK-35981",
        "group": "last-30-days",
        "lat": 23.95060106888761,
        "lon": -115.8124458545952,
        "alt_km": 387.7253921071688,
        "timestamp": "2025-12-08T19:31:47.637095+00:00",
        "meta_object_name": "STARLINK-35981",
        "meta_object_id": "2025-270L",
        "meta_epoch": "2025-12-08T06:00:02.999808",
        "meta_mean_motion": 15.61399159,
        "meta_eccentricity": 0.00014509,
        "meta_inclination": 42.9989,
        "meta_ra_of_asc_node": 219.0629,
        "meta_arg_of_pericenter": 271.1127,
        "meta_mean_anomaly": 195.5335,
        "meta_ephemeris_type": 0,
        "meta_classification_type": "U",
        "meta_norad_cat_id": 66598,
        "meta_element_set_no": 999,
        "meta_rev_at_epoch": 351,
        "meta_bstar": -0.025951982,
        "meta_mean_motion_dot": -0.01998592,
        "meta_mean_motion_ddot": 0,
        "tle_line1": "1 66598U 25270L   25342.25003472 -.01998592  00000+0 -25952-1 0  9997",
        "tle_line2": "2 66598  42.9989 219.0629 0001450 271.1127 195.5335 15.61399159  3516"
      },
      "geometry": {
        "type": "Point",
        "coordinates": [
          -115.8124458545952,
          23.95060106888761
        ]
      }
    },
    {
      "type": "Feature",
      "properties": {
        "norad_id": 66599,
        "name": "STARLINK-35930",
        "group": "last-30-days",
        "lat": 25.09221985231472,
        "lon": -114.11850675434557,
        "alt_km": 387.4734539962683,
        "timestamp": "2025-12-08T19:31:47.637104+00:00",
        "meta_object_name": "STARLINK-35930",
        "meta_object_id": "2025-270M",
        "meta_epoch": "2025-12-08T06:00:02.999808",
        "meta_mean_motion": 15.61397768,
        "meta_eccentricity": 0.00014158,
        "meta_inclination": 42.9988,
        "meta_ra_of_asc_node": 219.059,
        "meta_arg_of_pericenter": 275.0912,
        "meta_mean_anomaly": 193.4757,
        "meta_ephemeris_type": 0,
        "meta_classification_type": "U",
        "meta_norad_cat_id": 66599,
        "meta_element_set_no": 999,
        "meta_rev_at_epoch": 367,
        "meta_bstar": -0.025944674,
        "meta_mean_motion_dot": -0.01997978,
        "meta_mean_motion_ddot": 0,
        "tle_line1": "1 66599U 25270M   25342.25003472 -.01997978  00000+0 -25945-1 0  9997",
        "tle_line2": "2 66599  42.9988 219.0590 0001415 275.0912 193.4757 15.61397768  3675"
      },
      "geometry": {
        "type": "Point",
        "coordinates": [
          -114.11850675434557,
          25.09221985231472
        ]
      }
    }
  ]
}